{
  "type": "FeatureCollection",
  "name": "Singapore demo zones",
  "features": [
    {"type":"Feature","properties":{"NAME":"Central Water Catchment","OBJECTID":1},
     "geometry":{"type":"Polygon","coordinates":[[[103.78,1.37],[103.82,1.37],[103.82,1.40],[103.78,1.40],[103.78,1.37]]]}},
    {"type":"Feature","properties":{"NAME":"Downtown Core","OBJECTID":2},
     "geometry":{"type":"Polygon","coordinates":[[[103.83,1.27],[103.86,1.27],[103.86,1.29],[103.83,1.29],[103.83,1.27]]]}},
    {"type":"Feature","properties":{"NAME":"Changi","OBJECTID":3},
     "geometry":{"type":"Polygon","coordinates":[[[103.96,1.32],[104.00,1.32],[104.00,1.36],[103.96,1.36],[103.96,1.32]]]}},
    {"type":"Feature","properties":{"NAME":"Jurong East","OBJECTID":4},
     "geometry":{"type":"Polygon","coordinates":[[[103.72,1.32],[103.75,1.32],[103.75,1.35],[103.72,1.35],[103.72,1.32]]]}},
    {"type":"Feature","properties":{"NAME":"Woodlands","OBJECTID":5},
     "geometry":{"type":"Polygon","coordinates":[[[103.77,1.43],[103.80,1.43],[103.80,1.45],[103.77,1.45],[103.77,1.43]]]}},
    {"type":"Feature","properties":{"NAME":"Punggol","OBJECTID":6},
     "geometry":{"type":"Polygon","coordinates":[[[103.89,1.39],[103.92,1.39],[103.92,1.42],[103.89,1.42],[103.89,1.39]]]}},
    {"type":"Feature","properties":{"NAME":"Sentosa","OBJECTID":7},
     "geometry":{"type":"Polygon","coordinates":[[[103.81,1.24],[103.84,1.24],[103.84,1.26],[103.81,1.26],[103.81,1.24]]]}}
  ]
}
